KUIPER-00062            
1 64522U 25134Y   26194.98131079  .00001786  00000+0  26318-3 0  9998
2 64522  51.8976  32.1123 0000690 115.0792 245.0242 14.79928497 58810
KUIPER-00063            
1 64523U 25134Z   26194.97323591  .00001791  00000+0  26385-3 0  9990
2 64523  51.9033  39.7043 0000759 114.3400 245.7641 14.79933353 58709
KUIPER-00064            
1 64524U 25134AA  26194.97592413  .00001693  00000+0  25110-3 0  9998
2 64524  51.9037  37.1169 0000704 111.1407 248.9631 14.79930680 58745
KUIPER-00065            
1 64525U 25134AB  26194.76795846  .00000229  00000+0  59101-4 0  9993
2 64525  51.9048  43.2057 0000912 118.4372 241.6682 14.79933915 58621
KUIPER-00066            
1 64526U 25134AC  26194.59899284  .00000320  00000+0  70999-4 0  9996
2 64526  51.9018 341.2328 0000478  88.3893 271.7124 14.79931699 59499
KUIPER-00069            
1 64816U 25151A   26195.06245884  .00001173  00000+0  18288-3 0  9990
2 64816  51.9019  81.8239 0000719 108.1882 251.9158 14.79927430 55476
KUIPER-00070            
1 64817U 25151B   26195.06924792 -.00000250  00000+0 -38234-5 0  9995
2 64817  51.9006 106.7066 0000765  85.1663 274.9386 14.79933757 55130
KUIPER-00071            
1 64818U 25151C   26195.00443080  .00001775  00000+0  26182-3 0  9994
2 64818  51.9016 104.5305 0000941 102.5577 257.5491 14.79929972 53976
KUIPER-00072            
1 64819U 25151D   26195.12728198  .00001817  00000+0  26729-3 0  9998
2 64819  51.8985  83.9300 0001051  89.9664 270.1419 14.79939802 54272
KUIPER-00073            
1 64820U 25151E   26195.10570902  .00001895  00000+0  27749-3 0  9995
2 64820  51.9001 104.0658 0001100  95.2751 264.8337 14.79933190 55170
KUIPER-00074            
1 64821U 25151F   26194.98649764  .00326424  56764-4  58682-3 0  9995
2 64821  51.8747   4.1525 0004149 272.7789  87.2749 16.01108165 55356
KUIPER-00075            
1 64822U 25151G   26194.38450482  .00026411  00000+0  55125-3 0  9996
2 64822  51.8646 328.2629 0003058  20.6455 339.4658 15.45345969 55812
KUIPER-00076            
1 64823U 25151H   26194.91390800 -.00000079  00000+0  18636-4 0  9993
2 64823  51.9010  94.9346 0000705  95.3794 264.7249 14.79935079 54103
KUIPER-00077            
1 64824U 25151J   26195.17864193 -.00000173  00000+0  62636-5 0  9999
2 64824  51.9016  98.7819 0000818 102.2360 257.8694 14.79934819 54073
KUIPER-00078            
1 64825U 25151K   26194.94497395  .00000500  00000+0  94563-4 0  9996
2 64825  51.9006  97.2932 0000742 104.9817 255.1227 14.79931185 54071
KUIPER-00079            
1 64826U 25151L   26195.17592588  .00001866  00000+0  27374-3 0  9994
2 64826  51.8999 101.2317 0000753  98.1676 261.9372 14.79927574 55236
