{"fetched_at":"2026-07-14T17:40:21.416Z","source":"https://celestrak.org/NORAD/elements/gp.php?GROUP=kuiper&FORMAT=JSON","constellation":"kuiper","records":[{"OBJECT_NAME":"KUIPER-00062","OBJECT_ID":"2025-134Y","EPOCH":"2026-07-13T23:33:05.252256","CLASSIFICATION_TYPE":"U","MEAN_MOTION":14.79928497,"ECCENTRICITY":0.000069,"INCLINATION":51.8976,"RA_OF_ASC_NODE":32.1123,"ARG_OF_PERICENTER":115.0792,"MEAN_ANOMALY":245.0242,"EPHEMERIS_TYPE":0,"NORAD_CAT_ID":64522,"ELEMENT_SET_NO":999,"REV_AT_EPOCH":5881,"BSTAR":0.00026318,"MEAN_MOTION_DOT":0.00001786,"MEAN_MOTION_DDOT":0},{"OBJECT_NAME":"KUIPER-00063","OBJECT_ID":"2025-134Z","EPOCH":"2026-07-13T23:21:27.582624","CLASSIFICATION_TYPE":"U","MEAN_MOTION":14.79933353,"ECCENTRICITY":0.0000759,"INCLINATION":51.9033,"RA_OF_ASC_NODE":39.7043,"ARG_OF_PERICENTER":114.34,"MEAN_ANOMALY":245.7641,"EPHEMERIS_TYPE":0,"NORAD_CAT_ID":64523,"ELEMENT_SET_NO":999,"REV_AT_EPOCH":5870,"BSTAR":0.00026385,"MEAN_MOTION_DOT":0.00001791,"MEAN_MOTION_DDOT":0},{"OBJECT_NAME":"KUIPER-00064","OBJECT_ID":"2025-134AA","EPOCH":"2026-07-13T23:25:19.844832","CLASSIFICATION_TYPE":"U","MEAN_MOTION":14.7993068,"ECCENTRICITY":0.0000704,"INCLINATION":51.9037,"RA_OF_ASC_NODE":37.1169,"ARG_OF_PERICENTER":111.1407,"MEAN_ANOMALY":248.9631,"EPHEMERIS_TYPE":0,"NORAD_CAT_ID":64524,"ELEMENT_SET_NO":999,"REV_AT_EPOCH":5874,"BSTAR":0.0002511,"MEAN_MOTION_DOT":0.00001693,"MEAN_MOTION_DDOT":0},{"OBJECT_NAME":"KUIPER-00065","OBJECT_ID":"2025-134AB","EPOCH":"2026-07-13T18:25:51.610944","CLASSIFICATION_TYPE":"U","MEAN_MOTION":14.79933915,"ECCENTRICITY":0.0000912,"INCLINATION":51.9048,"RA_OF_ASC_NODE":43.2057,"ARG_OF_PERICENTER":118.4372,"MEAN_ANOMALY":241.6682,"EPHEMERIS_TYPE":0,"NORAD_CAT_ID":64525,"ELEMENT_SET_NO":999,"REV_AT_EPOCH":5862,"BSTAR":0.000059101,"MEAN_MOTION_DOT":0.00000229,"MEAN_MOTION_DDOT":0},{"OBJECT_NAME":"KUIPER-00066","OBJECT_ID":"2025-134AC","EPOCH":"2026-07-13T14:22:32.981376","CLASSIFICATION_TYPE":"U","MEAN_MOTION":14.79931699,"ECCENTRICITY":0.0000478,"INCLINATION":51.9018,"RA_OF_ASC_NODE":341.2328,"ARG_OF_PERICENTER":88.3893,"MEAN_ANOMALY":271.7124,"EPHEMERIS_TYPE":0,"NORAD_CAT_ID":64526,"ELEMENT_SET_NO":999,"REV_AT_EPOCH":5949,"BSTAR":0.000070999,"MEAN_MOTION_DOT":0.0000032,"MEAN_MOTION_DDOT":0},{"OBJECT_NAME":"KUIPER-00069","OBJECT_ID":"2025-151A","EPOCH":"2026-07-14T01:29:56.443776","CLASSIFICATION_TYPE":"U","MEAN_MOTION":14.7992743,"ECCENTRICITY":0.0000719,"INCLINATION":51.9019,"RA_OF_ASC_NODE":81.8239,"ARG_OF_PERICENTER":108.1882,"MEAN_ANOMALY":251.9158,"EPHEMERIS_TYPE":0,"NORAD_CAT_ID":64816,"ELEMENT_SET_NO":999,"REV_AT_EPOCH":5547,"BSTAR":0.00018288,"MEAN_MOTION_DOT":0.00001173,"MEAN_MOTION_DDOT":0},{"OBJECT_NAME":"KUIPER-00070","OBJECT_ID":"2025-151B","EPOCH":"2026-07-14T01:39:43.020288","CLASSIFICATION_TYPE":"U","MEAN_MOTION":14.79933757,"ECCENTRICITY":0.0000765,"INCLINATION":51.9006,"RA_OF_ASC_NODE":106.7066,"ARG_OF_PERICENTER":85.1663,"MEAN_ANOMALY":274.9386,"EPHEMERIS_TYPE":0,"NORAD_CAT_ID":64817,"ELEMENT_SET_NO":999,"REV_AT_EPOCH":5513,"BSTAR":-0.0000038234,"MEAN_MOTION_DOT":-0.0000025,"MEAN_MOTION_DDOT":0},{"OBJECT_NAME":"KUIPER-00071","OBJECT_ID":"2025-151C","EPOCH":"2026-07-14T00:06:22.821120","CLASSIFICATION_TYPE":"U","MEAN_MOTION":14.79929972,"ECCENTRICITY":0.0000941,"INCLINATION":51.9016,"RA_OF_ASC_NODE":104.5305,"ARG_OF_PERICENTER":102.5577,"MEAN_ANOMALY":257.5491,"EPHEMERIS_TYPE":0,"NORAD_CAT_ID":64818,"ELEMENT_SET_NO":999,"REV_AT_EPOCH":5397,"BSTAR":0.00026182,"MEAN_MOTION_DOT":0.00001775,"MEAN_MOTION_DDOT":0},{"OBJECT_NAME":"KUIPER-00072","OBJECT_ID":"2025-151D","EPOCH":"2026-07-14T03:03:17.163072","CLASSIFICATION_TYPE":"U","MEAN_MOTION":14.79939802,"ECCENTRICITY":0.0001051,"INCLINATION":51.8985,"RA_OF_ASC_NODE":83.93,"ARG_OF_PERICENTER":89.9664,"MEAN_ANOMALY":270.1419,"EPHEMERIS_TYPE":0,"NORAD_CAT_ID":64819,"ELEMENT_SET_NO":999,"REV_AT_EPOCH":5427,"BSTAR":0.00026729,"MEAN_MOTION_DOT":0.00001817,"MEAN_MOTION_DDOT":0},{"OBJECT_NAME":"KUIPER-00073","OBJECT_ID":"2025-151E","EPOCH":"2026-07-14T02:32:13.259328","CLASSIFICATION_TYPE":"U","MEAN_MOTION":14.7993319,"ECCENTRICITY":0.00011,"INCLINATION":51.9001,"RA_OF_ASC_NODE":104.0658,"ARG_OF_PERICENTER":95.2751,"MEAN_ANOMALY":264.8337,"EPHEMERIS_TYPE":0,"NORAD_CAT_ID":64820,"ELEMENT_SET_NO":999,"REV_AT_EPOCH":5517,"BSTAR":0.00027749,"MEAN_MOTION_DOT":0.00001895,"MEAN_MOTION_DDOT":0},{"OBJECT_NAME":"KUIPER-00074","OBJECT_ID":"2025-151F","EPOCH":"2026-07-13T23:40:33.396096","CLASSIFICATION_TYPE":"U","MEAN_MOTION":16.01108165,"ECCENTRICITY":0.0004149,"INCLINATION":51.8747,"RA_OF_ASC_NODE":4.1525,"ARG_OF_PERICENTER":272.7789,"MEAN_ANOMALY":87.2749,"EPHEMERIS_TYPE":0,"NORAD_CAT_ID":64821,"ELEMENT_SET_NO":999,"REV_AT_EPOCH":5535,"BSTAR":0.00058682,"MEAN_MOTION_DOT":0.00326424,"MEAN_MOTION_DDOT":0.000056764},{"OBJECT_NAME":"KUIPER-00075","OBJECT_ID":"2025-151G","EPOCH":"2026-07-13T09:13:41.216448","CLASSIFICATION_TYPE":"U","MEAN_MOTION":15.45345969,"ECCENTRICITY":0.0003058,"INCLINATION":51.8646,"RA_OF_ASC_NODE":328.2629,"ARG_OF_PERICENTER":20.6455,"MEAN_ANOMALY":339.4658,"EPHEMERIS_TYPE":0,"NORAD_CAT_ID":64822,"ELEMENT_SET_NO":999,"REV_AT_EPOCH":5581,"BSTAR":0.00055124807,"MEAN_MOTION_DOT":0.00026411,"MEAN_MOTION_DDOT":0},{"OBJECT_NAME":"KUIPER-00076","OBJECT_ID":"2025-151H","EPOCH":"2026-07-13T21:56:01.651200","CLASSIFICATION_TYPE":"U","MEAN_MOTION":14.79935079,"ECCENTRICITY":0.0000705,"INCLINATION":51.901,"RA_OF_ASC_NODE":94.9346,"ARG_OF_PERICENTER":95.3794,"MEAN_ANOMALY":264.7249,"EPHEMERIS_TYPE":0,"NORAD_CAT_ID":64823,"ELEMENT_SET_NO":999,"REV_AT_EPOCH":5410,"BSTAR":0.000018636,"MEAN_MOTION_DOT":-7.9e-7,"MEAN_MOTION_DDOT":0},{"OBJECT_NAME":"KUIPER-00077","OBJECT_ID":"2025-151J","EPOCH":"2026-07-14T04:17:14.662752","CLASSIFICATION_TYPE":"U","MEAN_MOTION":14.79934819,"ECCENTRICITY":0.0000818,"INCLINATION":51.9016,"RA_OF_ASC_NODE":98.7819,"ARG_OF_PERICENTER":102.236,"MEAN_ANOMALY":257.8694,"EPHEMERIS_TYPE":0,"NORAD_CAT_ID":64824,"ELEMENT_SET_NO":999,"REV_AT_EPOCH":5407,"BSTAR":0.0000062636,"MEAN_MOTION_DOT":-0.00000173,"MEAN_MOTION_DDOT":0},{"OBJECT_NAME":"KUIPER-00078","OBJECT_ID":"2025-151K","EPOCH":"2026-07-13T22:40:45.749280","CLASSIFICATION_TYPE":"U","MEAN_MOTION":14.79931185,"ECCENTRICITY":0.0000742,"INCLINATION":51.9006,"RA_OF_ASC_NODE":97.2932,"ARG_OF_PERICENTER":104.9817,"MEAN_ANOMALY":255.1227,"EPHEMERIS_TYPE":0,"NORAD_CAT_ID":64825,"ELEMENT_SET_NO":999,"REV_AT_EPOCH":5407,"BSTAR":0.000094563,"MEAN_MOTION_DOT":0.000005,"MEAN_MOTION_DDOT":0},{"OBJECT_NAME":"KUIPER-00079","OBJECT_ID":"2025-151L","EPOCH":"2026-07-14T04:13:19.996032","CLASSIFICATION_TYPE":"U","MEAN_MOTION":14.79927574,"ECCENTRICITY":0.0000753,"INCLINATION":51.8999,"RA_OF_ASC_NODE":101.2317,"ARG_OF_PERICENTER":98.1676,"MEAN_ANOMALY":261.9372,"EPHEMERIS_TYPE":0,"NORAD_CAT_ID":64826,"ELEMENT_SET_NO":999,"REV_AT_EPOCH":5523,"BSTAR":0.00027374,"MEAN_MOTION_DOT":0.00001866,"MEAN_MOTION_DDOT":0}]}
